STARLINK-2684           
1 48471U 21040AV  25083.39836461  .00003211  00000+0  23436-3 0  9996
2 48471  53.0564 324.1390 0001517  88.0749 272.0414 15.06405599213696
STARLINK-2697           
1 48474U 21040AY  25083.91439425  .00019742  00000+0  13397-2 0  9996
2 48474  53.0554 321.8202 0001502  86.1043 274.0118 15.06423288215043
STARLINK-2619           
1 48475U 21040AZ  25083.34517307  .00083921  00000+0  36254-2 0  9997
2 48475  53.0496 313.8381 0007142 163.7548 196.3678 15.21758715213831
STARLINK-2728           
1 48478U 21040BC  25083.95862875  .00053480  00000+0  35776-2 0  9995
2 48478  53.0551 321.6218 0001405 102.2458 257.8688 15.06446557214382
STARLINK-2755           
1 48479U 21040BD  25084.02129021  .00019023  00000+0  12919-2 0  9993
2 48479  53.0558 321.3406 0001304  85.9165 274.1973 15.06417605215063
STARLINK-2706           
1 48481U 21040BF  25083.94299601  .00023740  00000+0  16070-2 0  9991
2 48481  53.0547 331.9736 0001746  99.0038 261.1149 15.06405725213623
STARLINK-2525           
1 48482U 21040BG  25083.97613238  .00023208  00000+0  15704-2 0  9993
2 48482  53.0543 331.5467 0000743 341.5034  18.5928 15.06433362214082
STARLINK-2531           
1 48483U 21040BH  25083.97243762  .00008857  00000+0  61239-3 0  9993
2 48483  53.0561 331.5621 0001215  87.2224 272.8904 15.06421669214913
STARLINK-2696           
1 48484U 21040BJ  25083.35395718  .00091593  00000+0  25428-2 0  9993
2 48484  53.0544 311.2234 0004276 181.5061 178.5928 15.36145825213879
STARLINK-2500           
1 48485U 21040BK  25083.97981463  .00029291  00000+0  19759-2 0  9996
2 48485  53.0559 331.5297 0001262 102.2417 257.8713 15.06423840214919
STARLINK-2494           
1 48487U 21040BM  25083.98718200  .00022053  00000+0  14937-2 0  9998
2 48487  53.0560 331.4924 0001311  92.5752 267.5387 15.06425719214920
STARLINK-2063           
1 48553U 21041A   25082.83624582 -.00001900  00000+0 -10878-3 0  9996
2 48553  53.0535 266.6590 0001215  93.3280 266.7848 15.06383399212324
STARLINK-2139           
1 48554U 21041B   25083.53661706  .00011184  00000+0  76912-3 0  9998
2 48554  53.0531 263.8235 0001641  98.1909 261.9266 15.06371870212827
STARLINK-2145           
1 48555U 21041C   25083.80104070  .00000976  00000+0  84432-4 0  9999
2 48555  53.0531 272.3283 0001385  91.5389 268.5759 15.06399119212770
STARLINK-2151           
1 48556U 21041D   25083.78998682  .00013005  00000+0  89020-3 0  9991
2 48556  53.0530 272.3818 0001410  87.0628 273.0522 15.06406092212328
STARLINK-2155           
1 48557U 21041E   25083.79459096  .00010049  00000+0  69258-3 0  9990
2 48557  53.0537 262.3595 0001233 102.0280 258.0847 15.06398914212913
STARLINK-2166           
1 48558U 21041F   25083.79090271  .00001081  00000+0  91490-4 0  9997
2 48558  53.0539 262.3730 0001366  95.1702 264.9443 15.06396373211605
STARLINK-2188           
1 48563U 21041L   25083.78721735  .00007991  00000+0  55472-3 0  9993
2 48563  53.0541 262.3912 0001330  92.9506 267.1636 15.06399873212916
STARLINK-2190           
1 48564U 21041M   25083.51445957  .00010220  00000+0  70396-3 0  9995
2 48564  53.0547 263.6146 0001470  90.4433 269.6725 15.06402484212822
STARLINK-2191           
1 48565U 21041N   25083.91667824  .00170159  00000+0  26061-2 0  9996
2 48565  53.0451 223.2700 0001892 301.0076 353.1796 15.53268712  5965
STARLINK-2214           
1 48566U 21041P   25083.79735531  .00013210  00000+0  90402-3 0  9999
2 48566  53.0534 272.3173 0001430  97.4570 262.6582 15.06400782212320
STARLINK-2219           
1 48569U 21041S   25083.78355043  .00006202  00000+0  43476-3 0  9999
2 48569  53.0519 262.4036 0001232  91.3625 268.7505 15.06408007212463
STARLINK-2221           
1 48571U 21041U   25083.77893881 -.00000389  00000+0 -72255-5 0  9999
2 48571  53.0541 272.4262 0000797 118.6495 241.4574 15.06376204212328
STARLINK-2222           
1 48572U 21041V   25083.77524563  .00005532  00000+0  39002-3 0  9992
2 48572  53.0528 272.4460 0001418  84.1963 275.9187 15.06395110212321
