"OBJECT_NAME","OBJECT_ID","EPOCH","MEAN_MOTION","ECCENTRICITY","INCLINATION","RA_OF_ASC_NODE","ARG_OF_PERICENTER","MEAN_ANOMALY","EPHEMERIS_TYPE","CLASSIFICATION_TYPE","NORAD_CAT_ID","ELEMENT_SET_NO","REV_AT_EPOCH","BSTAR","MEAN_MOTION_DOT","MEAN_MOTION_DDOT"
"STARLINK-2684","2021-040AV","2025-03-24T09:33:38.702304",15.06405599,0.0001517,53.0564,324.139,88.0749,272.0414,0,"U",48471,999,21498,0.00023436,0.00003211,0
"STARLINK-2697","2021-040AY","2025-03-24T21:56:43.663200",15.06423288,0.0001502,53.0554,321.8202,86.1043,274.0118,0,"U",48474,999,21504,0.0013397,0.00019742,0
"STARLINK-2619","2021-040AZ","2025-03-24T08:17:02.953248",15.21758715,0.0007142,53.0496,313.8381,163.7548,196.3678,0,"U",48475,999,21383,0.0036254,0.00083921,0
"STARLINK-2728","2021-040BC","2025-03-24T23:00:25.524000",15.06446557,0.0001405,53.0551,321.6218,102.2458,257.8688,0,"U",48478,999,21438,0.0035776,0.0005348,0
"STARLINK-2755","2021-040BD","2025-03-25T00:30:39.474144",15.06417605,0.0001304,53.0558,321.3406,85.9165,274.1973,0,"U",48479,999,21506,0.0012919,0.00019023,0
"STARLINK-2706","2021-040BF","2025-03-24T22:37:54.855264",15.06405725,0.0001746,53.0547,331.9736,99.0038,261.1149,0,"U",48481,999,21490,0.001607,0.0002374,0
"STARLINK-2525","2021-040BG","2025-03-24T23:25:37.837632",15.06433362,0.0000743,53.0543,331.5467,341.5034,18.5928,0,"U",48482,999,21408,0.0015704,0.00023208,0
"STARLINK-2531","2021-040BH","2025-03-24T23:20:18.610368",15.06421669,0.0001215,53.0561,331.5621,87.2224,272.8904,0,"U",48483,999,21491,0.00061239,0.00008857,0
"STARLINK-2696","2021-040BJ","2025-03-24T08:29:41.900352",15.36145825,0.0004276,53.0544,311.2234,181.5061,178.5928,0,"U",48484,999,21515,0.0025428,0.00091593,0
"STARLINK-2500","2021-040BK","2025-03-24T23:30:55.984032",15.0642384,0.0001262,53.0559,331.5297,102.2417,257.8713,0,"U",48485,999,21491,0.0019759,0.00029291,0
"STARLINK-2494","2021-040BM","2025-03-24T23:41:32.524800",15.06425719,0.0001311,53.056,331.4924,92.5752,267.5387,0,"U",48487,999,21492,0.0014937,0.00022053,0
"STARLINK-2063","2021-041A","2025-03-23T20:04:11.638848",15.06383399,0.0001215,53.0535,266.659,93.328,266.7848,0,"U",48553,999,21232,-0.00010878,-0.000019,0
"STARLINK-2139","2021-041B","2025-03-24T12:52:43.713984",15.0637187,0.0001641,53.0531,263.8235,98.1909,261.9266,0,"U",48554,999,21282,0.00076912,0.00011184,0
"STARLINK-2145","2021-041C","2025-03-24T19:13:29.916480",15.06399119,0.0001385,53.0531,272.3283,91.5389,268.5759,0,"U",48555,999,21277,0.000084432,0.00000976,0
"STARLINK-2151","2021-041D","2025-03-24T18:57:34.861248",15.06406092,0.000141,53.053,272.3818,87.0628,273.0522,0,"U",48556,999,21232,0.0008902,0.00013005,0
"STARLINK-2155","2021-041E","2025-03-24T19:04:12.658944",15.06398914,0.0001233,53.0537,262.3595,102.028,258.0847,0,"U",48557,999,21291,0.00069258,0.00010049,0
"STARLINK-2166","2021-041F","2025-03-24T18:58:53.994144",15.06396373,0.0001366,53.0539,262.373,95.1702,264.9443,0,"U",48558,999,21160,0.00009149,0.00001081,0
"STARLINK-2188","2021-041L","2025-03-24T18:53:35.579040",15.06399873,0.000133,53.0541,262.3912,92.9506,267.1636,0,"U",48563,999,21291,0.00055472,0.00007991,0
"STARLINK-2190","2021-041M","2025-03-24T12:20:49.306848",15.06402484,0.000147,53.0547,263.6146,90.4433,269.6725,0,"U",48564,999,21282,0.00070396,0.0001022,0
"STARLINK-2191","2021-041N","2025-03-24T22:00:00.999936",15.53268712,0.0001892,53.0451,223.27,301.0076,353.1796,0,"U",48565,999,596,0.0026061,0.00170159,0
"STARLINK-2214","2021-041P","2025-03-24T19:08:11.498784",15.06400782,0.000143,53.0534,272.3173,97.457,262.6582,0,"U",48566,999,21232,0.00090402,0.0001321,0
"STARLINK-2219","2021-041S","2025-03-24T18:48:18.757152",15.06408007,0.0001232,53.0519,262.4036,91.3625,268.7505,0,"U",48569,999,21246,0.00043476,0.00006202,0
"STARLINK-2221","2021-041U","2025-03-24T18:41:40.313184",15.06376204,0.0000797,53.0541,272.4262,118.6495,241.4574,0,"U",48571,999,21232,-0.0000072255,-0.00000389,0
"STARLINK-2222","2021-041V","2025-03-24T18:36:21.222432",15.0639511,0.0001418,53.0528,272.446,84.1963,275.9187,0,"U",48572,999,21232,0.00039002,0.00005532,0
